CUBEBUG-2 (LO-74)
1 39440U 13066AA  26199.81193302  .00001891  00000-0  17796-3 0  9992
2 39440  97.8920 148.9319 0055576 283.1152  76.3869 14.93981472681712
FUNCUBE-1 (AO-73)
1 39444U 13066AE  26199.87145521  .00004515  00000-0  27859-3 0  9999
2 39444  97.8298 171.9904 0037964  95.7411 264.8148 15.09848087684445
UWE-3
1 39446U 13066AG  26199.82895623  .00002139  00000-0  18604-3 0  9999
2 39446  97.8721 156.1237 0047627 212.0168 147.8158 14.97214313682312
UNISAT-6
1 40012U 14033C   26199.86632567  .00001015  00000-0  11386-3 0  9997
2 40012  97.7914 352.0296 0043872 325.4406  34.3961 14.88374766650877
DUCHIFAT-1
1 40021U 14033M   26199.67267288  .00094147  00000-0  72509-3 0  9992
2 40021  98.0415 263.4357 0003153 232.8599 127.2374 15.71696006660689
LILACSAT-2
1 40908U 15049K   26199.86579248  .00010571  00000-0  17436-3 0  9994
2 40908  97.4623 237.9281 0008572 130.7952 229.4046 15.52440772600667
CAS-2T & KS-1Q
1 41847U 16066G   26199.82160718  .00000428  00000-0  68600-4 0  9991
2 41847  98.3812 275.1958 0342070  33.7721 328.4756 14.44774190509362
FOX-1B (AO-91)
1 43017U 17073E   26199.88865459  .00003432  00000-0  15125-3 0  9992
2 43017  97.4662  66.4574 0148370 218.5900 140.4654 15.13090788470187
FUNCUBE-3 (EO-79)/QB50P1
1 40025U 14033R   26199.31896595  .00004488  00000-0  21986-3 0  9998
2 40025  98.0968 212.6585 0010487 115.5699 244.6619 15.18693321657759
FOX-1A (AO-85)
1 40967U 15058D   26199.67501655  .00001565  00000-0  14854-3 0  9999
2 40967  64.7726 181.1175 0132657  44.4905 316.6768 14.91100292118268
DIWATA-2B (PO-101)
1 43678U 18084H   26199.97852510  .00000961  00000-0  81267-4 0  9997
2 43678  98.1213  37.5792 0012640  72.7944 287.4661 15.00571378420987
ESHAIL-2
1 43700U 18090A   26199.92172288  .00000138  00000-0  00000-0 0  9990
2 43700   0.0172  77.2456 0002384  80.9591 136.1147  1.00273163 27999
ITASAT-1
1 43786U 18099AE  26199.70234998  .00003145  00000-0  15156-3 0  9998
2 43786  97.4009 250.5895 0011100 236.4623 123.5552 15.19405003417690
FOX-1CLIFF (AO-95)
1 43770U 18099N   26199.13826366  .00005977  00000-0  22607-3 0  9998
2 43770  97.4363 259.2809 0007475 227.7066 132.3540 15.27309721417943
JY1SAT (JO-97)
1 43803U 18099AX  26199.14296429  .00009509  00000-0  28599-3 0  9998
2 43803  97.4106 262.1024 0007100 149.2378 210.9282 15.34577339418370
UWE-4
1 43880U 18111E   26199.77857816  .00018634  00000-0  35827-3 0  9991
2 43880  97.5834 129.6699 0006675 180.9155 179.2083 15.47960214415667
CAS-6 (TO-108)
1 44881U 19093C   26199.95037867  .00000494  00000-0  61766-4 0  9996
2 44881  97.7515 271.4062 0013190 349.0239  11.0687 14.86563003356134
DOSAAF-85 (RS-44)
1 44909U 19096E   26199.82464754  .00000016  00000-0  14406-4 0  9994
2 44909  82.5244 318.6831 0218471  70.5556 291.9010 12.79748895306397
SALSAT (TUBSAT 22)
1 46495U 20068K   26199.01462697  .00004061  00000-0  14177-3 0  9990
2 46495  97.8861 203.9671 0009496 182.8082 177.3106 15.30195257320079
CAMSAT XW-3 (CAS-9)
1 50466U 21131B   26199.91769602  .00000215  00000-0  79970-4 0  9990
2 50466  98.4987 292.1364 0004360  20.9840 339.1527 14.41383391239686
ROBUSTA 1F (MTCUBE-2)
1 53109U 22080E   26199.62285370 -.00000003  00000-0  00000-0 0  9994
2 53109  70.1404 287.3145 0009081 282.7035  77.2609  6.42583326 94082
UMKA-1 (RS40S)
1 57172U 23091G   26199.93547868  .00002908  00000-0  13352-3 0  9990
2 57172  97.5029 258.5146 0012664  16.9888 343.1769 15.21144173168834
CUBESX-HSE-3 (RS42S)
1 57178U 23091N   26199.92566324  .00007047  00000-0  23087-3 0  9998
2 57178  97.5070 265.9281 0009274 348.1492  11.9530 15.31937291169280
MONITOR-3 (RS58S)
1 57180U 23091Q   26199.95631792  .00005042  00000-0  18480-3 0  9990
2 57180  97.5062 263.6458 0010593 356.1704   3.9452 15.28413294169143
MONITOR-4 (RS57S)
1 57182U 23091S   26199.93360132  .00005368  00000-0  19604-3 0  9997
2 57182  97.5055 263.5959 0010585 356.6886   3.4282 15.28500498169148
MONITOR-2 (RS39S)
1 57184U 23091U   26199.93141952  .00002288  00000-0  11199-3 0  9995
2 57184  97.5051 258.0116 0011018  11.4815 348.6668 15.19172781168770
SVYATOBOR-1 (RS60S)
1 57187U 23091X   26199.90944145  .00004480  00000-0  17127-3 0  9993
2 57187  97.5068 263.9101 0008356 351.0177   9.0911 15.27097443169157
VIZARD-METEO (RS38S)
1 57189U 23091Z   26199.92823609  .00009063  00000-0  25307-3 0  9999
2 57189  97.5070 270.0692 0005368 323.4841  36.6036 15.36943079169561
UTMN-2 (RS27S)
1 57203U 23091AP  26199.92617438  .00006652  00000-0  21274-3 0  9997
2 57203  97.5066 267.6009 0006382 335.4353  24.6584 15.32753032169407
POLYTECH UNIVERSE-3 (RS46S)
1 57191U 23091AB  26199.88842026  .00002390  00000-0  11593-3 0  9999
2 57191  97.5026 257.4730 0015723  25.3903 334.8101 15.19385566168769
